[{"OBJECT_NAME":"STARLINK-30585","OBJECT_ID":"2023-158N","EPOCH":"2026-03-09T22:00:01.999584","MEAN_MOTION":15.27528607,"ECCENTRICITY":0.00013177,"INCLINATION":43.0006,"RA_OF_ASC_NODE":25.8306,"ARG_OF_PERICENTER":243.4062,"MEAN_ANOMALY":124.873,"EPHEMERIS_TYPE":0,"CLASSIFICATION_TYPE":"U","NORAD_CAT_ID":58063,"ELEMENT_SET_NO":999,"REV_AT_EPOCH":552,"BSTAR":0.001444868,"MEAN_MOTION_DOT":0.00039649,"MEAN_MOTION_DDOT":0},{"OBJECT_NAME":"GEOSCAN 5 (RS92S5)","OBJECT_ID":"2025-155R","EPOCH":"2026-03-09T22:01:07.273920","MEAN_MOTION":15.30265233,"ECCENTRICITY":0.00070849,"INCLINATION":97.4462,"RA_OF_ASC_NODE":37.7456,"ARG_OF_PERICENTER":154.5846,"MEAN_ANOMALY":205.5745,"EPHEMERIS_TYPE":0,"CLASSIFICATION_TYPE":"U","NORAD_CAT_ID":64891,"ELEMENT_SET_NO":999,"REV_AT_EPOCH":6562,"BSTAR":0.00068639307,"MEAN_MOTION_DOT":0.00020065,"MEAN_MOTION_DDOT":0}]
